BEIDOU-3S IGSO-1S       
1 40549U 15019A   26174.79626225 -.00000180  00000+0  00000+0 0  9995
2 40549  49.1813 295.3807 0038874 191.2374 162.8236  1.00249795 41135
NAVSTAR 74 (USA 262)    
1 40730U 15033A   26175.69997944 -.00000052  00000+0  00000+0 0  9990
2 40730  53.9765 266.7766 0115142  30.2383 330.4597  2.00556017 80144
BEIDOU-3S M2S           
1 40748U 15037A   26174.22980106 -.00000108  00000+0  00000+0 0  9995
2 40748  54.8652 301.8377 0008578 258.4392 101.4576  1.86231968 74239
BEIDOU-3S M1S           
1 40749U 15037B   26175.51021828 -.00000109  00000+0  00000+0 0  9997
2 40749  54.8605 301.7817 0003283  62.2648 297.7606  1.86254971 74264
GSAT0206 (GALILEO 10)   
1 40890U 15045B   26175.49628500  .00000051  00000+0  00000+0 0  9995
2 40890  54.9433 221.4024 0001685 336.0482  24.0274  1.70473861 67168
BEIDOU-3S IGSO-2S       
1 40938U 15053A   26174.69365262 -.00000142  00000+0  00000+0 0  9993
2 40938  49.2096 258.7032 0065554 192.7581 164.9159  1.00258052 39416
NAVSTAR 75 (USA 265)    
1 41019U 15062A   26175.75577088 -.00000091  00000+0  00000+0 0  9996
2 41019  56.9645  30.5195 0112112 231.0101 128.0356  2.00567160 77984
GSAT-15                 
1 41028U 15065A   26175.97313793 -.00000249  00000+0  00000+0 0  9999
2 41028   0.0518 263.8528 0004570 171.0929 282.0258  1.00271631 38874
GSAT0209 (GALILEO 12)   
1 41174U 15079A   26175.66441507 -.00000037  00000+0  00000+0 0  9992
2 41174  55.8317 101.0568 0004985 351.6457   8.3201  1.70473674 64908
GSAT0208 (GALILEO 11)   
1 41175U 15079B   26173.53836061 -.00000027  00000+0  00000+0 0  9999
2 41175  55.8290 101.1119 0004839 343.6998  16.2634  1.70473694 65283
IRNSS-1E                
1 41241U 16003A   26174.77267103 -.00000319  00000+0  00000+0 0  9997
2 41241  33.2478  59.6548 0019029 179.1877  63.0623  1.00275328 38143
NAVSTAR 76 (USA 266)    
1 41328U 16007A   26174.85002808 -.00000060  00000+0  00000+0 0  9998
2 41328  55.5277  89.1954 0095820 247.3210 111.6653  2.00551374 75978
COSMOS 2514 [GLONASS-M] 
1 41330U 16008A   26174.85480678 -.00000083  00000+0  00000+0 0  9992
2 41330  65.0172 312.7777 0011551 198.7083 161.2407  2.13102654 80763
BEIDOU-2 IGSO-6         
1 41434U 16021A   26175.09191728 -.00000155  00000+0  00000+0 0  9994
2 41434  60.2358  37.9691 0057538 231.1257 128.7042  1.00259092 37558
IRNSS-1G                
1 41469U 16027A   26174.84712422 -.00000331  00000+0  00000+0 0  9996
2 41469   5.2122  97.3232 0006290   2.5927 246.3008  1.00277897 37246
GSAT0211 (GALILEO 14)   
1 41549U 16030A   26174.24882789  .00000041  00000+0  00000+0 0  9994
2 41549  55.0938 221.5280 0003038 321.6334  38.4230  1.70473985 62777
GSAT0210 (GALILEO 13)   
1 41550U 16030B   26172.74633867  .00000031  00000+0  00000+0 0  9999
2 41550  55.0915 221.5674 0008804 257.2384 102.7374  1.70473809 62742
BEIDOU-2 G7             
1 41586U 16037A   26175.97651794 -.00000345  00000+0  00000+0 0  9991
2 41586   1.7400  69.4037 0006796   0.1977 305.6117  1.00273184  6969
EUTELSAT 117 WEST B     
1 41589U 16038B   26174.93344307 -.00000005  00000+0  00000+0 0  9992
2 41589   0.0091 158.0636 0000063  73.8469 259.2281  1.00270429 36737
GSAT0207 (GALILEO 15)   
1 41859U 16069A   26174.19787196 -.00000031  00000+0  00000+0 0  9990
2 41859  55.5021 100.9199 0005134 331.8808  28.0688  1.70473659 59503
GSAT0212 (GALILEO 16)   
1 41860U 16069B   26174.63790319 -.00000034  00000+0  00000+0 0  9995
2 41860  55.5001 100.9027 0004534   9.5312 350.4536  1.70473709 59763
GSAT0213 (GALILEO 17)   
1 41861U 16069C   26174.41851368 -.00000032  00000+0  00000+0 0  9992
2 41861  55.5022 100.9167 0004687 315.0710  44.8679  1.70474211 59624
GSAT0214 (GALILEO 18)   
1 41862U 16069D   26172.80498560 -.00000023  00000+0  00000+0 0  9995
2 41862  55.5000 100.9540 0003849 321.2487  38.7039  1.70473560 59724
SES-15                  
1 42709U 17026A   26175.21616350  .00000068  00000+0  00000+0 0  9995
2 42709   0.0192 334.4613 0000615  97.6725 148.8943  1.00268468  7502
QZS-2 (MICHIBIKI-2)     
1 42738U 17028A   26174.49055875 -.00000168  00000+0  00000+0 0  9999
2 42738  39.4179 243.0621 0759390 269.3295  77.7964  1.00282240  7686
QZS-3 (MICHIBIKI-3)     
1 42917U 17048A   26176.05108094 -.00000338  00000+0  00000+0 0  9995
2 42917   0.0645 151.5409 0002225 298.1375 328.9488  1.00272879 32330
COSMOS 2522 [GLONASS-M] 
1 42939U 17055A   26174.69248618  .00000100  00000+0  00000+0 0  9998
2 42939  64.1036 191.6583 0030269 259.5847 100.1235  2.13066943 68114
QZS-4 (MICHIBIKI-4)     
1 42965U 17062A   26169.35012920 -.00000360  00000+0  00000+0 0  9996
2 42965  40.1070 343.4662 0745018 271.8091 274.2172  1.00250086 31811
BEIDOU-3 M1             
1 43001U 17069A   26174.03955942 -.00000093  00000+0  00000+0 0  9999
2 43001  56.6975  62.8909 0010052 326.5979  33.3745  1.86231239 58712
BEIDOU-3 M2             
1 43002U 17069B   26173.97832444 -.00000093  00000+0  00000+0 0  9993
2 43002  56.6963  62.9294 0008992 352.6727   7.3499  1.86230523 58700
GSAT0215 (GALILEO 19)   
1 43055U 17079A   26173.88137223  .00000039  00000+0  00000+0 0  9994
2 43055  55.0723 221.3499 0003221 264.2586  95.7812  1.70474658 53082
