OBJECT_NAME,OBJECT_ID,EPOCH,MEAN_MOTION,ECCENTRICITY,INCLINATION,RA_OF_ASC_NODE,ARG_OF_PERICENTER,MEAN_ANOMALY,EPHEMERIS_TYPE,CLASSIFICATION_TYPE,NORAD_CAT_ID,ELEMENT_SET_NO,REV_AT_EPOCH,BSTAR,MEAN_MOTION_DOT,MEAN_MOTION_DDOT
BEIDOU-3S IGSO-1S (C31),2015-019A,2026-06-23T19:06:37.058400,1.00249795,.00388743,49.1813,295.3807,191.2374,162.8236,0,U,40549,999,4113,0,-.18E-5,0
GPS BIIF-10 (PRN 08),2015-033A,2026-06-24T16:47:58.223616,2.00556017,.0115142,53.9765,266.7766,30.2383,330.4597,0,U,40730,999,8014,0,-.52E-6,0
BEIDOU-3S M2S (C58),2015-037A,2026-06-23T05:30:54.811584,1.86231968,.00085782,54.8652,301.8377,258.4392,101.4576,0,U,40748,999,7423,0,-.108E-5,0
BEIDOU-3S M1S (C57),2015-037B,2026-06-24T12:14:42.859392,1.86254971,.0003283,54.8605,301.7817,62.2648,297.7606,0,U,40749,999,7426,0,-.109E-5,0
GSAT0206 (GALILEO 10),2015-045B,2026-06-24T11:54:39.024000,1.70473861,.0001685,54.9433,221.4024,336.0482,24.0274,0,U,40890,999,6716,0,.51E-6,0
BEIDOU-3S IGSO-2S (C56),2015-053A,2026-06-23T16:38:51.586368,1.00258052,.00655545,49.2096,258.7032,192.7581,164.9159,0,U,40938,999,3941,0,-.142E-5,0
GPS BIIF-11 (PRN 10),2015-062A,2026-06-24T18:08:18.604032,2.00567160,.0112112,56.9645,30.5195,231.0101,128.0356,0,U,41019,999,7798,0,-.91E-6,0
GSAT-15 (GAGAN/PRN 139),2015-065A,2026-06-24T23:21:19.117152,1.00271631,.000457,0.0518,263.8528,171.0929,282.0258,0,U,41028,999,3887,0,-.249E-5,0
GSAT0209 (GALILEO 12),2015-079A,2026-06-24T15:56:45.462048,1.70473674,.0004985,55.8317,101.0568,351.6457,8.3201,0,U,41174,999,6490,0,-.37E-6,0
GSAT0208 (GALILEO 11),2015-079B,2026-06-22T12:55:14.356704,1.70473694,.00048395,55.8290,101.1119,343.6998,16.2634,0,U,41175,999,6528,0,-.27E-6,0
IRNSS-1E,2016-003A,2026-06-23T18:32:38.776992,1.00275328,.0019029,33.2478,59.6548,179.1877,63.0623,0,U,41241,999,3814,0,-.319E-5,0
GPS BIIF-12 (PRN 32),2016-007A,2026-06-23T20:24:02.426112,2.00551374,.009582,55.5277,89.1954,247.3210,111.6653,0,U,41328,999,7597,0,-.6E-6,0
COSMOS 2514 (751),2016-008A,2026-06-23T20:30:55.305792,2.13102654,.00115514,65.0172,312.7777,198.7083,161.2407,0,U,41330,999,8076,0,-.83E-6,0
BEIDOU-2 IGSO-6 (C13),2016-021A,2026-06-24T02:12:21.652992,1.00259092,.00575384,60.2358,37.9691,231.1257,128.7042,0,U,41434,999,3755,0,-.155E-5,0
IRNSS-1G,2016-027A,2026-06-23T20:19:51.532608,1.00277897,.00062909,5.2122,97.3232,2.5927,246.3008,0,U,41469,999,3724,0,-.331E-5,0
GSAT0211 (GALILEO 14),2016-030A,2026-06-23T05:58:18.729696,1.70473985,.00030388,55.0938,221.5280,321.6334,38.4230,0,U,41549,999,6277,0,.41E-6,0
GSAT0210 (GALILEO 13),2016-030B,2026-06-21T17:54:43.661088,1.70473809,.0008804,55.0915,221.5674,257.2384,102.7374,0,U,41550,999,6274,0,.31E-6,0
BEIDOU-2 G7 (C03),2016-037A,2026-06-24T23:26:11.150016,1.00273184,.0006796,1.7400,69.4037,0.1977,305.6117,0,U,41586,999,696,0,-.345E-5,0
EUTELSAT 117 WEST B (WAAS/PRN 131),2016-038B,2026-06-23T22:24:09.481248,1.00270429,.0000063,0.0091,158.0636,73.8469,259.2281,0,U,41589,999,3673,0,-.5E-7,0
GSAT0207 (GALILEO 15),2016-069A,2026-06-23T04:44:56.137344,1.70473659,.00051341,55.5021,100.9199,331.8808,28.0688,0,U,41859,999,5950,0,-.31E-6,0
GSAT0212 (GALILEO 16),2016-069B,2026-06-23T15:18:34.835616,1.70473709,.00045345,55.5001,100.9027,9.5312,350.4536,0,U,41860,999,5976,0,-.34E-6,0
GSAT0213 (GALILEO 17),2016-069C,2026-06-23T10:02:39.581952,1.70474211,.00046874,55.5022,100.9167,315.0710,44.8679,0,U,41861,999,5962,0,-.32E-6,0
GSAT0214 (GALILEO 18),2016-069D,2026-06-21T19:19:10.755840,1.70473560,.00038497,55.5000,100.9540,321.2487,38.7039,0,U,41862,999,5972,0,-.23E-6,0
SES-15 (WAAS/PRN 133),2017-026A,2026-06-24T05:11:16.526400,1.00268468,.00006159,0.0192,334.4613,97.6725,148.8943,0,U,42709,999,750,0,.68E-6,0
QZS-2 (QZSS/PRN 194),2017-028A,2026-06-23T11:46:24.276000,1.00282240,.07593906,39.4179,243.0621,269.3295,77.7964,0,U,42738,999,768,0,-.168E-5,0
QZS-3 (QZSS/PRN 199),2017-048A,2026-06-25T01:13:33.393216,1.00272879,.0002225,0.0645,151.5409,298.1375,328.9488,0,U,42917,999,3233,0,-.338E-5,0
COSMOS 2522 (752),2017-055A,2026-06-23T16:37:10.805952,2.13066943,.00302696,64.1036,191.6583,259.5847,100.1235,0,U,42939,999,6811,0,.1E-5,0
QZS-4 (QZSS/PRN 195),2017-062A,2026-06-18T08:24:11.162880,1.00250086,.07450188,40.1070,343.4662,271.8091,274.2172,0,U,42965,999,3181,0,-.36E-5,0
BEIDOU-3 M1 (C19),2017-069A,2026-06-23T00:56:57.933888,1.86231239,.00100528,56.6975,62.8909,326.5979,33.3745,0,U,43001,999,5871,0,-.93E-6,0
BEIDOU-3 M2 (C20),2017-069B,2026-06-22T23:28:47.231616,1.86230523,.00089923,56.6963,62.9294,352.6727,7.3499,0,U,43002,999,5870,0,-.93E-6,0
GSAT0215 (GALILEO 19),2017-079A,2026-06-22T21:09:10.560672,1.70474658,.00032211,55.0723,221.3499,264.2586,95.7812,0,U,43055,999,5308,0,.39E-6,0
